NORAD_CAT_ID,OBJECT_NAME,OBJECT_TYPE,EPOCH,MEAN_MOTION,ECCENTRICITY,INCLINATION,RA_OF_ASC_NODE,ARG_OF_PERICENTER,MEAN_ANOMALY,BSTAR,MEAN_MOTION_DOT,MEAN_MOTION_DDOT,TLE_LINE0,TLE_LINE1,TLE_LINE2,SEMIMAJOR_AXIS,PERIOD,APOGEE,PERIGEE,DECAYED
53547.0,STARLINK-4474,PAYLOAD,2024-08-21 20:42:47,15.08829987,0.000136,53.2159,79.7271,91.4446,268.6702,-0.00036153,-6.035e-05,0.0,0 STARLINK-4474,1 53547U 22101W   24234.86305172 -.00006035  00000-0 -36153-3 0  9994,2 53547  53.2159  79.7271 0001360  91.4446 268.6702 15.08829987111036,6917.911,95.438,540.717,538.835,0.0
